ALOS-4 (DAICHI-4)       
1 60182U 24123A   24247.85419522  .00008332  00000+0  11211-2 0  9997
2 60182  97.9220 343.3843 0001516  99.6783 260.4599 14.79475143  9572
